{
  "type": "FeatureCollection",
  "features": [
    {
      "type": "Feature",
      "properties": {
        "norad_id": 35616,
        "name": "IRIDIUM 33 DEB",
        "group": "iridium-33-debris",
        "lat": -32.140280709220875,
        "lon": -17.04341931191179,
        "alt_km": 636.6560662846878,
        "timestamp": "2025-12-13T20:38:51.391948+00:00",
        "meta_object_name": "IRIDIUM 33 DEB",
        "meta_object_id": "1997-051QN",
        "meta_epoch": "2025-12-13T06:12:25.260480",
        "meta_mean_motion": 14.81841111,
        "meta_eccentricity": 0.00102457,
        "meta_inclination": 86.3535,
        "meta_ra_of_asc_node": 345.5275,
        "meta_arg_of_pericenter": 162.0013,
        "meta_mean_anomaly": 198.1574,
        "meta_ephemeris_type": 0,
        "meta_classification_type": "U",
        "meta_norad_cat_id": 35616,
        "meta_element_set_no": 999,
        "meta_rev_at_epoch": 87582,
        "meta_bstar": 0.0030119844,
        "meta_mean_motion_dot": 0.00023901,
        "meta_mean_motion_ddot": 0,
        "tle_line1": "1 35616U 97051QN  25347.25862570  .00023901  00000+0  30120-2 0  9991",
        "tle_line2": "2 35616  86.3535 345.5275 0010245 162.0013 198.1574 14.81841111875824"
      },
      "geometry": {
        "type": "Point",
        "coordinates": [
          -17.04341931191179,
          -32.140280709220875
        ]
      }
    },
    {
      "type": "Feature",
      "properties": {
        "norad_id": 35618,
        "name": "IRIDIUM 33 DEB",
        "group": "iridium-33-debris",
        "lat": -25.306609353545674,
        "lon": -8.7210910552502,
        "alt_km": 708.0568722082044,
        "timestamp": "2025-12-13T20:38:51.391958+00:00",
        "meta_object_name": "IRIDIUM 33 DEB",
        "meta_object_id": "1997-051QQ",
        "meta_epoch": "2025-12-05T07:42:53.148672",
        "meta_mean_motion": 14.52258119,
        "meta_eccentricity": 0.00302089,
        "meta_inclination": 86.3407,
        "meta_ra_of_asc_node": 356.7447,
        "meta_arg_of_pericenter": 46.3254,
        "meta_mean_anomaly": 314.0448,
        "meta_ephemeris_type": 0,
        "meta_classification_type": "U",
        "meta_norad_cat_id": 35618,
        "meta_element_set_no": 999,
        "meta_rev_at_epoch": 65286,
        "meta_bstar": 0.00091388234,
        "meta_mean_motion_dot": 3.753e-05,
        "meta_mean_motion_ddot": 0,
        "tle_line1": "1 35618U 97051QQ  25339.32144848  .00003753  00000+0  91388-3 0  9990",
        "tle_line2": "2 35618  86.3407 356.7447 0030208  46.3254 314.0448 14.52258119652865"
      },
      "geometry": {
        "type": "Point",
        "coordinates": [
          -8.7210910552502,
          -25.306609353545674
        ]
      }
    },
    {
      "type": "Feature",
      "properties": {
        "norad_id": 35620,
        "name": "IRIDIUM 33 DEB",
        "group": "iridium-33-debris",
        "lat": -79.58408288014994,
        "lon": 57.07557075035236,
        "alt_km": 671.6513874973571,
        "timestamp": "2025-12-13T20:38:51.391968+00:00",
        "meta_object_name": "IRIDIUM 33 DEB",
        "meta_object_id": "1997-051QS",
        "meta_epoch": "2025-12-12T01:41:06.603648",
        "meta_mean_motion": 14.38023351,
        "meta_eccentricity": 0.01413324,
        "meta_inclination": 86.3886,
        "meta_ra_of_asc_node": 217.736,
        "meta_arg_of_pericenter": 261.1948,
        "meta_mean_anomaly": 97.3224,
        "meta_ephemeris_type": 0,
        "meta_classification_type": "U",
        "meta_norad_cat_id": 35620,
        "meta_element_set_no": 999,
        "meta_rev_at_epoch": 59956,
        "meta_bstar": 0.0071195038,
        "meta_mean_motion_dot": 0.00024261,
        "meta_mean_motion_ddot": 0,
        "tle_line1": "1 35620U 97051QS  25346.07021532  .00024261  00000+0  71195-2 0  9997",
        "tle_line2": "2 35620  86.3886 217.7360 0141332 261.1948  97.3224 14.38023351599569"
      },
      "geometry": {
        "type": "Point",
        "coordinates": [
          57.07557075035236,
          -79.58408288014994
        ]
      }
    },
    {
      "type": "Feature",
      "properties": {
        "norad_id": 35622,
        "name": "IRIDIUM 33 DEB",
        "group": "iridium-33-debris",
        "lat": -73.8651761207437,
        "lon": 96.3259499358438,
        "alt_km": 557.6676366635484,
        "timestamp": "2025-12-13T20:38:51.391981+00:00",
        "meta_object_name": "IRIDIUM 33 DEB",
        "meta_object_id": "1997-051QU",
        "meta_epoch": "2025-12-12T12:23:11.121216",
        "meta_mean_motion": 15.04651104,
        "meta_eccentricity": 0.00065616,
        "meta_inclination": 86.2021,
        "meta_ra_of_asc_node": 263.7133,
        "meta_arg_of_pericenter": 330.5495,
        "meta_mean_anomaly": 206.7469,
        "meta_ephemeris_type": 0,
        "meta_classification_type": "U",
        "meta_norad_cat_id": 35622,
        "meta_element_set_no": 999,
        "meta_rev_at_epoch": 87356,
        "meta_bstar": 0.0072729917,
        "meta_mean_motion_dot": 0.00103625,
        "meta_mean_motion_ddot": 0,
        "tle_line1": "1 35622U 97051QU  25346.51610094  .00103625  00000+0  72730-2 0  9993",
        "tle_line2": "2 35622  86.2021 263.7133 0006561 330.5495 206.7469 15.04651104873561"
      },
      "geometry": {
        "type": "Point",
        "coordinates": [
          96.3259499358438,
          -73.8651761207437
        ]
      }
    },
    {
      "type": "Feature",
      "properties": {
        "norad_id": 35628,
        "name": "IRIDIUM 33 DEB",
        "group": "iridium-33-debris",
        "lat": -66.29531453697692,
        "lon": 0.23519104129320878,
        "alt_km": 670.9271705074252,
        "timestamp": "2025-12-13T20:38:51.391991+00:00",
        "meta_object_name": "IRIDIUM 33 DEB",
        "meta_object_id": "1997-051RA",
        "meta_epoch": "2025-12-12T18:46:03.477216",
        "meta_mean_motion": 14.67584351,
        "meta_eccentricity": 0.00103833,
        "meta_inclination": 86.3581,
        "meta_ra_of_asc_node": 9.0566,
        "meta_arg_of_pericenter": 342.8162,
        "meta_mean_anomaly": 17.2699,
        "meta_ephemeris_type": 0,
        "meta_classification_type": "U",
        "meta_norad_cat_id": 35628,
        "meta_element_set_no": 999,
        "meta_rev_at_epoch": 86447,
        "meta_bstar": 0.0018776311,
        "meta_mean_motion_dot": 0.00010694,
        "meta_mean_motion_ddot": 0,
        "tle_line1": "1 35628U 97051RA  25346.78198469  .00010694  00000+0  18776-2 0  9998",
        "tle_line2": "2 35628  86.3581   9.0566 0010383 342.8162  17.2699 14.67584351864471"
      },
      "geometry": {
        "type": "Point",
        "coordinates": [
          0.23519104129320878,
          -66.29531453697692
        ]
      }
    },
    {
      "type": "Feature",
      "properties": {
        "norad_id": 35631,
        "name": "IRIDIUM 33 DEB",
        "group": "iridium-33-debris",
        "lat": 71.66603875910516,
        "lon": -170.5602825248995,
        "alt_km": 714.18171071501,
        "timestamp": "2025-12-13T20:38:51.392004+00:00",
        "meta_object_name": "IRIDIUM 33 DEB",
        "meta_object_id": "1997-051RD",
        "meta_epoch": "2025-12-12T13:19:47.349696",
        "meta_mean_motion": 14.47310251,
        "meta_eccentricity": 0.00189893,
        "meta_inclination": 86.367,
        "meta_ra_of_asc_node": 21.0551,
        "meta_arg_of_pericenter": 118.4889,
        "meta_mean_anomaly": 34.8351,
        "meta_ephemeris_type": 0,
        "meta_classification_type": "U",
        "meta_norad_cat_id": 35631,
        "meta_element_set_no": 999,
        "meta_rev_at_epoch": 87194,
        "meta_bstar": 0.00054856017,
        "meta_mean_motion_dot": 2.031e-05,
        "meta_mean_motion_ddot": 0,
        "tle_line1": "1 35631U 97051RD  25346.55540914  .00002031  00000+0  54856-3 0  9999",
        "tle_line2": "2 35631  86.3670  21.0551 0018989 118.4889  34.8351 14.47310251871949"
      },
      "geometry": {
        "type": "Point",
        "coordinates": [
          -170.5602825248995,
          71.66603875910516
        ]
      }
    },
    {
      "type": "Feature",
      "properties": {
        "norad_id": 35680,
        "name": "IRIDIUM 33 DEB",
        "group": "iridium-33-debris",
        "lat": -26.022856360090973,
        "lon": 19.119577856883826,
        "alt_km": 770.9977505227498,
        "timestamp": "2025-12-13T20:38:51.392016+00:00",
        "meta_object_name": "IRIDIUM 33 DEB",
        "meta_object_id": "1997-051RJ",
        "meta_epoch": "2025-12-10T20:56:41.216928",
        "meta_mean_motion": 14.2086329,
        "meta_eccentricity": 0.015045,
        "meta_inclination": 86.1029,
        "meta_ra_of_asc_node": 22.3487,
        "meta_arg_of_pericenter": 284.4866,
        "meta_mean_anomaly": 255.1489,
        "meta_ephemeris_type": 0,
        "meta_classification_type": "U",
        "meta_norad_cat_id": 35680,
        "meta_element_set_no": 999,
        "meta_rev_at_epoch": 60674,
        "meta_bstar": 0.0056946,
        "meta_mean_motion_dot": 0.00013831,
        "meta_mean_motion_ddot": 0,
        "tle_line1": "1 35680U 97051RJ  25344.87269927  .00013831  00000+0  56946-2 0  9999",
        "tle_line2": "2 35680  86.1029  22.3487 0150450 284.4866 255.1489 14.20863290606741"
      },
      "geometry": {
        "type": "Point",
        "coordinates": [
          19.119577856883826,
          -26.022856360090973
        ]
      }
    }
  ]
}